NEXTSAT-1               
1 43811U 18099BF  26068.68342010  .00004546  00000+0  29857-3 0  9992
2 43811  97.4203 114.8574 0011320 323.9610  36.0854 15.08057555396886
STARLINK-4052           
1 53171U 22083AR  26068.56055737  .00000213  00000+0  31477-4 0  9993
2 53171  53.2163 134.4606 0001527  98.5147 261.6019 15.08839775201755
